[
    {
        "Altitude(m)": 607897.6177570578,
        "Argument of Periapsis(deg)": 0.0,
        "Eccentricity": 0.0,
        "Inclination(deg)": 60.0,
        "Latitude(deg)": -14.29295212199006,
        "Longitude(deg)": 166.61873242925822,
        "Mean Anomaly(deg)": -16.363599999999984,
        "RAAN(deg)": 275.0,
        "Satellite Name": "Test1 1231",
        "Satellite Number": 1231,
        "Semi-Major Axis(m)": 6980739.136638005,
        "Time(s)": 0
    },
    {
        "Altitude(m)": 607750.8190126682,
        "Argument of Periapsis(deg)": 0.00010418945913296404,
        "Eccentricity": 0.0,
        "Inclination(deg)": 60.0,
        "Latitude(deg)": -13.758793974193985,
        "Longitude(deg)": 166.90580225936128,
        "Mean Anomaly(deg)": -15.743493854538132,
        "RAAN(deg)": 274.9995799508602,
        "Satellite Name": "Test1 1231",
        "Satellite Number": 1231,
        "Semi-Major Axis(m)": 6980739.136638005,
        "Time(s)": 10
    }
]